{"type": "FeatureCollection", "features": [{"type": "Feature", "properties": {"kind": "region", "name": "איילון", "district": "תל אביב", "label": [34.773, 32.0356]}, "geometry": {"type": "MultiPolygon", "coordinates": [[[[34.7931, 32.0696], [34.7823, 32.0591], [34.7653, 32.0578], [34.7576, 32.067], [34.7483, 32.0617], [34.7406, 32.0212], [34.756, 32.0121], [34.8023, 32.0068], [34.8131, 32.0186], [34.8038, 32.0278], [34.8038, 32.0408], [34.8116, 32.0526], [34.7946, 32.0696], [34.7931, 32.0696]]]]}}, {"type": "Feature", "properties": {"kind": "region", "name": "אילת", "district": "דרום", "label": [34.9284, 30.166]}, "geometry": {"type": "MultiPolygon", "coordinates": [[[[34.8624, 30.3647], [34.8378, 30.3474], [34.6651, 30.3474], [34.6373, 30.3194], [34.6774, 30.2116], [34.716, 30.1329], [34.8146, 29.8578], [34.8439, 29.8043], [34.8486, 29.7267], [34.8701, 29.6972], [34.8717, 29.6624], [34.8609, 29.6476], [34.8655, 29.5981], [34.8994, 29.5377], [34.9195, 29.5471], [34.9287, 29.5618], [34.9411, 29.5618], [34.9395, 29.5753], [34.955, 29.594], [34.9688, 29.5927], [34.975, 29.5981], [34.9858, 29.6409], [35.0182, 29.6878], [35.0243, 29.799], [35.0336, 29.823], [35.0475, 29.8337], [35.0629, 29.8912], [35.0814, 29.914], [35.0783, 29.9928], [35.1045, 30.0315], [35.1014, 30.0649], [35.1523, 30.1249], [35.1585, 30.1742], [35.1477, 30.2142], [35.1569, 30.2395], [35.1508, 30.2755], [35.0413, 30.2755], [34.9395, 30.3607], [34.9303, 30.3647], [34.864, 30.3647], [34.8624, 30.3647]]]]}}, {"type": "Feature", "properties": {"kind": "region", "name": "אשר", "district": "חוף", "label": [35.1567, 32.9802]}, "geometry": {"type": "MultiPolygon", "coordinates": [[[[35.2834, 33.0908], [35.2417, 33.0792], [35.2125, 33.083], [35.1986, 33.0701], [35.1785, 33.0766], [35.1508, 33.0714], [35.1446, 33.0792], [35.1122, 33.0792], [35.1045, 33.0727], [35.1045, 33.0404], [35.0953, 33.012], [35.0891, 33.012], [35.0906, 32.9977], [35.0752, 32.9563], [35.0737, 32.933], [35.0691, 32.933], [35.0706, 32.9123], [35.0814, 32.9046], [35.0814, 32.8877], [35.066, 32.8424], [35.0475, 32.8178], [35.1061, 32.7711], [35.14, 32.7711], [35.1369, 32.7802], [35.1539, 32.8269], [35.1184, 32.8502], [35.1184, 32.8774], [35.1431, 32.8864], [35.2063, 32.8864], [35.2248, 32.902], [35.2109, 32.9227], [35.2279, 32.9266], [35.2417, 32.9447], [35.2063, 32.9628], [35.2417, 32.9861], [35.2217, 32.9951], [35.2232, 33.0042], [35.251, 33.0288], [35.2803, 33.0262], [35.2957, 33.052], [35.3219, 33.0507], [35.3312, 33.0572], [35.308, 33.0869], [35.2849, 33.0908], [35.2834, 33.0908]]]]}}, {"type": "Feature", "properties": {"kind": "region", "name": "גליל", "district": "צפון", "label": [35.3014, 32.8932]}, "geometry": {"type": "MultiPolygon", "coordinates": [[[[35.2248, 32.9732], [35.2125, 32.9667], [35.2202, 32.9537], [35.2541, 32.9447], [35.214, 32.9214], [35.2248, 32.902], [35.2063, 32.8864], [35.1431, 32.8864], [35.1184, 32.8774], [35.1184, 32.8502], [35.1539, 32.8295], [35.1369, 32.775], [35.1647, 32.7646], [35.1739, 32.7309], [35.1384, 32.7141], [35.1785, 32.7154], [35.2371, 32.7659], [35.251, 32.7698], [35.2865, 32.7996], [35.2926, 32.8126], [35.3343, 32.845], [35.3466, 32.8502], [35.4098, 32.8502], [35.4268, 32.8644], [35.4268, 32.9123], [35.4191, 32.9253], [35.3774, 32.9589], [35.3728, 32.9706], [35.2988, 32.9706], [35.2649, 32.9641], [35.2556, 32.9732], [35.2263, 32.9732], [35.2248, 32.9732]]]]}}, {"type": "Feature", "properties": {"kind": "region", "name": "גלעד", "district": "ש\"י", "label": [35.3551, 32.1257]}, "geometry": {"type": "MultiPolygon", "coordinates": [[[[35.4561, 32.3318], [35.3774, 32.2745], [35.0336, 32.2745], [34.9904, 32.2158], [34.9657, 32.208], [34.9611, 32.1962], [34.995, 32.1597], [34.9873, 32.1427], [34.995, 32.1284], [34.9873, 32.0983], [35.0028, 32.0722], [35.2371, 32.0722], [35.4437, 31.8996], [35.4561, 31.8943], [35.5393, 31.8943], [35.5239, 31.9179], [35.5239, 31.927], [35.527, 31.9428], [35.5409, 31.9506], [35.544, 31.9872], [35.5177, 32.0304], [35.5177, 32.0696], [35.5378, 32.0957], [35.5301, 32.1231], [35.544, 32.131], [35.5378, 32.144], [35.5517, 32.1584], [35.544, 32.1806], [35.5486, 32.1962], [35.5609, 32.2041], [35.5609, 32.3019], [35.5517, 32.3058], [35.5578, 32.3214], [35.5501, 32.3253], [35.5501, 32.3318], [35.4576, 32.3318], [35.4561, 32.3318]]], [[[35.2664, 31.8433], [35.2541, 31.8328], [35.2587, 31.8053], [35.2525, 31.7961], [35.2633, 31.7922], [35.5563, 31.7922], [35.5378, 31.8328], [35.5409, 31.8433], [35.268, 31.8433], [35.2664, 31.8433]]]]}}, {"type": "Feature", "properties": {"kind": "region", "name": "דוד", "district": "ירושלים", "label": [34.9172, 31.6892]}, "geometry": {"type": "MultiPolygon", "coordinates": [[[[34.8671, 31.7738], [34.8717, 31.7712], [34.8717, 31.6781], [34.9056, 31.6649], [34.921, 31.6387], [34.9457, 31.6387], [34.9611, 31.6295], [34.9688, 31.6321], [34.9688, 31.6768], [34.9642, 31.6846], [34.8964, 31.741], [34.8917, 31.7607], [34.8686, 31.7738], [34.8671, 31.7738]]]]}}, {"type": "Feature", "properties": {"kind": "region", "name": "דן", "district": "תל אביב", "label": [34.8324, 32.0755]}, "geometry": {"type": "MultiPolygon", "coordinates": [[[[34.8393, 32.1179], [34.8146, 32.1035], [34.79, 32.0774], [34.8116, 32.0526], [34.8038, 32.0408], [34.8038, 32.0278], [34.8131, 32.0199], [34.8285, 32.0382], [34.8393, 32.0408], [34.8748, 32.0343], [34.9041, 32.0461], [34.8886, 32.0761], [34.8655, 32.0826], [34.8578, 32.0944], [34.8532, 32.1075], [34.8594, 32.1179], [34.8408, 32.1179], [34.8393, 32.1179]]]]}}, {"type": "Feature", "properties": {"kind": "region", "name": "יהודה", "district": "ש\"י", "label": [35.158, 31.5687]}, "geometry": {"type": "MultiPolygon", "coordinates": [[[[35.1477, 31.7555], [35.1292, 31.7397], [35.1045, 31.7345], [35.049, 31.6846], [35.012, 31.6781], [34.9781, 31.6361], [34.9673, 31.6308], [34.9673, 31.6124], [34.9503, 31.6085], [34.9442, 31.5165], [34.901, 31.4666], [34.8871, 31.4363], [34.9056, 31.4232], [34.8902, 31.4034], [34.9118, 31.3903], [34.9195, 31.3731], [35.0213, 31.3903], [35.0968, 31.385], [35.1076, 31.3995], [35.1292, 31.3968], [35.1354, 31.3876], [35.1724, 31.3876], [35.1893, 31.3995], [35.2217, 31.4034], [35.2572, 31.4258], [35.2541, 31.4416], [35.2757, 31.4468], [35.305, 31.4705], [35.3296, 31.4705], [35.3728, 31.5073], [35.3975, 31.5192], [35.4006, 31.5691], [35.4206, 31.5901], [35.4114, 31.6256], [35.4468, 31.6781], [35.4514, 31.7227], [35.4792, 31.7384], [35.2587, 31.7384], [35.251, 31.745], [35.251, 31.7384], [35.2387, 31.7319], [35.2109, 31.7437], [35.1785, 31.7423], [35.1724, 31.7371], [35.1492, 31.7555], [35.1477, 31.7555]]]]}}, {"type": "Feature", "properties": {"kind": "region", "name": "ירקון", "district": "תל אביב", "label": [34.8331, 32.1506]}, "geometry": {"type": "MultiPolygon", "coordinates": [[[[34.8208, 32.2119], [34.8085, 32.2041], [34.79, 32.1349], [34.7653, 32.0761], [34.756, 32.0683], [34.7653, 32.0578], [34.7823, 32.0591], [34.7931, 32.0696], [34.79, 32.0774], [34.8146, 32.1035], [34.8378, 32.1179], [34.8594, 32.1179], [34.8748, 32.144], [34.8671, 32.1845], [34.8208, 32.2106], [34.8208, 32.2119]]]]}}, {"type": "Feature", "properties": {"kind": "region", "name": "כנרת", "district": "צפון", "label": [35.6154, 32.968]}, "geometry": {"type": "MultiPolygon", "coordinates": [[[[35.7521, 33.3127], [35.7382, 33.305], [35.7074, 33.3101], [35.6935, 33.2959], [35.6935, 33.2831], [35.6519, 33.2547], [35.6149, 33.2573], [35.6072, 33.2508], [35.6103, 33.2263], [35.5779, 33.2392], [35.5779, 33.256], [35.5655, 33.2663], [35.5501, 33.2599], [35.5517, 33.247], [35.5239, 33.2108], [35.5301, 33.1721], [35.5177, 33.1386], [35.5208, 33.114], [35.4915, 33.0934], [35.4915, 33.0766], [35.4484, 33.0792], [35.4268, 33.052], [35.3836, 33.043], [35.3528, 33.043], [35.3358, 33.0546], [35.2957, 33.052], [35.2803, 33.0262], [35.2448, 33.0236], [35.231, 33.0003], [35.2479, 32.9822], [35.2248, 32.9732], [35.2556, 32.9732], [35.2649, 32.9641], [35.2988, 32.9706], [35.3728, 32.9706], [35.3774, 32.9589], [35.4191, 32.9253], [35.4268, 32.9123], [35.4268, 32.8644], [35.4083, 32.8502], [35.4083, 32.7984], [35.4777, 32.7322], [35.4777, 32.7037], [35.4931, 32.6829], [35.4931, 32.6271], [35.5054, 32.6232], [35.5563, 32.579], [35.5717, 32.579], [35.5717, 32.5933], [35.5609, 32.5985], [35.5671, 32.6167], [35.5578, 32.6232], [35.5578, 32.6401], [35.5856, 32.6492], [35.601, 32.6764], [35.6565, 32.679], [35.6704, 32.7037], [35.749, 32.7374], [35.8246, 32.8204], [35.8369, 32.8864], [35.8554, 32.9149], [35.8801, 32.9317], [35.8554, 32.9732], [35.8369, 33.0792], [35.803, 33.0998], [35.8045, 33.1179], [35.8277, 33.145], [35.8261, 33.1657], [35.8015, 33.185], [35.7999, 33.2276], [35.7645, 33.2521], [35.7645, 33.2624], [35.7938, 33.2934], [35.7537, 33.3127], [35.7521, 33.3127]]]]}}, {"type": "Feature", "properties": {"kind": "region", "name": "כרמל", "district": "חוף", "label": [35.0521, 32.7283]}, "geometry": {"type": "MultiPolygon", "coordinates": [[[[34.9873, 32.8307], [34.958, 32.8165], [34.9534, 32.7283], [34.9472, 32.705], [34.9287, 32.6868], [34.9287, 32.6725], [34.9503, 32.6725], [34.9781, 32.657], [35.0135, 32.657], [35.0428, 32.6349], [35.0675, 32.6349], [35.0876, 32.6453], [35.1369, 32.6933], [35.1384, 32.7154], [35.1724, 32.7283], [35.1647, 32.7387], [35.1647, 32.7633], [35.1446, 32.7659], [35.1415, 32.7711], [35.1061, 32.7711], [35.049, 32.8178], [35.0336, 32.8022], [35.0135, 32.8087], [35.0058, 32.8152], [35.0058, 32.8243], [34.995, 32.8243], [34.9889, 32.8307], [34.9873, 32.8307]]]]}}, {"type": "Feature", "properties": {"kind": "region", "name": "לכיש", "district": "דרום", "label": [34.7094, 31.6873]}, "geometry": {"type": "MultiPolygon", "coordinates": [[[[34.6944, 31.8852], [34.6589, 31.8655], [34.5803, 31.7253], [34.5001, 31.6229], [34.5541, 31.5809], [34.5726, 31.5862], [34.6019, 31.6085], [34.6404, 31.6085], [34.7283, 31.531], [34.7345, 31.5073], [34.7514, 31.5073], [34.7776, 31.4929], [34.9241, 31.4929], [34.9442, 31.5165], [34.9488, 31.6059], [34.9673, 31.6151], [34.9673, 31.6269], [34.9457, 31.6387], [34.9102, 31.6387], [34.9102, 31.661], [34.8717, 31.6781], [34.8717, 31.7686], [34.8455, 31.7764], [34.8408, 31.8026], [34.8239, 31.8079], [34.8116, 31.7922], [34.7884, 31.783], [34.7668, 31.8275], [34.7375, 31.8419], [34.7113, 31.8446], [34.7144, 31.876], [34.6959, 31.8852], [34.6944, 31.8852]]]]}}, {"type": "Feature", "properties": {"kind": "region", "name": "מנשה", "district": "חוף", "label": [35.0035, 32.4971]}, "geometry": {"type": "MultiPolygon", "coordinates": [[[[34.9303, 32.6725], [34.921, 32.592], [34.8748, 32.4269], [34.9041, 32.4087], [34.9812, 32.4087], [35.0274, 32.3852], [35.0505, 32.3891], [35.0583, 32.423], [35.0737, 32.4347], [35.0737, 32.462], [35.0968, 32.4802], [35.1184, 32.4802], [35.1338, 32.4932], [35.1508, 32.4945], [35.2078, 32.5453], [35.1862, 32.5751], [35.1508, 32.566], [35.1369, 32.5531], [35.0629, 32.544], [35.0444, 32.5569], [35.0413, 32.5972], [35.066, 32.6349], [35.0428, 32.6349], [35.0135, 32.657], [34.9781, 32.657], [34.9503, 32.6725], [34.9318, 32.6725], [34.9303, 32.6725]]]]}}, {"type": "Feature", "properties": {"kind": "region", "name": "נגב", "district": "דרום", "label": [34.514, 31.2559]}, "geometry": {"type": "MultiPolygon", "coordinates": [[[[34.6034, 31.6085], [34.5726, 31.5862], [34.5556, 31.5809], [34.571, 31.5691], [34.5602, 31.5468], [34.5525, 31.5402], [34.5155, 31.5297], [34.3937, 31.4297], [34.3675, 31.3955], [34.3752, 31.3613], [34.3706, 31.3205], [34.3521, 31.3165], [34.3305, 31.2889], [34.2996, 31.2783], [34.2703, 31.2414], [34.3937, 30.9099], [34.4939, 30.7312], [34.5186, 30.645], [34.514, 30.5746], [34.551, 30.5414], [34.5371, 30.4578], [34.6034, 30.4165], [34.608, 30.3966], [34.6188, 30.3913], [34.6173, 30.374], [34.6358, 30.3234], [34.6666, 30.3474], [34.6666, 31.1966], [34.7884, 31.1979], [34.847, 31.2454], [34.9472, 31.2454], [34.9488, 31.335], [34.9842, 31.3613], [35.0274, 31.3613], [35.0398, 31.3718], [35.0398, 31.3889], [35.0213, 31.3903], [34.9195, 31.3731], [34.9118, 31.3903], [34.8886, 31.4047], [34.8871, 31.4363], [34.901, 31.4666], [34.9226, 31.4929], [34.7776, 31.4929], [34.7514, 31.5073], [34.7345, 31.5073], [34.7345, 31.4232], [34.7021, 31.3876], [34.7021, 31.3402], [34.6759, 31.3442], [34.6342, 31.3797], [34.6358, 31.4705], [34.6867, 31.5086], [34.7329, 31.5086], [34.7329, 31.5231], [34.6404, 31.6085], [34.6049, 31.6085], [34.6034, 31.6085]]]]}}, {"type": "Feature", "properties": {"kind": "region", "name": "נתב\"ג", "district": "מרכז", "label": [34.9195, 32.014]}, "geometry": {"type": "MultiPolygon", "coordinates": [[[[34.9118, 32.0461], [34.9102, 32.0408], [34.8763, 32.0343], [34.8378, 32.0395], [34.8193, 32.0212], [34.8254, 32.0029], [34.8516, 31.9925], [34.8701, 31.9755], [34.8933, 31.9807], [34.9735, 31.9807], [35.0028, 32.0016], [35.0135, 32.0212], [34.9596, 32.0212], [34.9257, 32.0461], [34.9133, 32.0461], [34.9118, 32.0461]]]]}}, {"type": "Feature", "properties": {"kind": "region", "name": "עמקים", "district": "צפון", "label": [35.3106, 32.6691]}, "geometry": {"type": "MultiPolygon", "coordinates": [[[[35.3481, 32.8502], [35.2942, 32.8139], [35.2865, 32.7996], [35.251, 32.7698], [35.2371, 32.7659], [35.1785, 32.7154], [35.1384, 32.7141], [35.1369, 32.6933], [35.0876, 32.6453], [35.066, 32.6349], [35.0459, 32.605], [35.0413, 32.5972], [35.0444, 32.5569], [35.0629, 32.544], [35.0721, 32.544], [35.1369, 32.5531], [35.1508, 32.566], [35.1878, 32.5751], [35.2078, 32.5466], [35.2263, 32.5505], [35.2464, 32.5258], [35.2741, 32.5141], [35.3312, 32.5193], [35.3651, 32.5167], [35.4006, 32.4984], [35.4114, 32.4737], [35.4114, 32.4581], [35.4006, 32.4438], [35.4083, 32.436], [35.4067, 32.4165], [35.4129, 32.4113], [35.4453, 32.4087], [35.4746, 32.4152], [35.5285, 32.393], [35.5517, 32.4139], [35.547, 32.4334], [35.564, 32.4555], [35.5609, 32.4854], [35.5717, 32.4945], [35.5501, 32.5115], [35.5578, 32.5271], [35.5517, 32.5466], [35.564, 32.5531], [35.5717, 32.579], [35.5563, 32.579], [35.5054, 32.6232], [35.4931, 32.6271], [35.4931, 32.6829], [35.4777, 32.7037], [35.4777, 32.7322], [35.4083, 32.7984], [35.4083, 32.8502], [35.3497, 32.8502], [35.3481, 32.8502]]]]}}, {"type": "Feature", "properties": {"kind": "region", "name": "ציון", "district": "ירושלים", "label": [34.9738, 31.7775]}, "geometry": {"type": "MultiPolygon", "coordinates": [[[[34.9704, 31.8878], [34.9534, 31.8668], [34.9149, 31.8511], [34.9149, 31.8341], [34.8547, 31.8302], [34.8378, 31.8131], [34.8455, 31.7804], [34.8794, 31.7712], [34.8917, 31.7607], [34.8964, 31.741], [34.9642, 31.6846], [34.9688, 31.6768], [34.9688, 31.6321], [34.9781, 31.6361], [35.012, 31.6781], [35.049, 31.6846], [35.1091, 31.7358], [35.103, 31.7515], [35.0814, 31.7725], [35.0814, 31.7948], [35.0906, 31.8013], [35.0891, 31.8695], [35.0768, 31.876], [35.0521, 31.8708], [35.032, 31.8433], [35.0259, 31.8419], [34.995, 31.8485], [34.9981, 31.876], [34.9719, 31.8878], [34.9704, 31.8878]]], [[[35.2001, 31.8], [35.1986, 31.7843], [35.2186, 31.7633], [35.197, 31.7555], [35.1631, 31.7541], [35.1754, 31.7423], [35.2109, 31.7437], [35.2387, 31.7319], [35.2525, 31.7555], [35.2232, 31.7607], [35.2232, 31.7948], [35.2017, 31.8], [35.2001, 31.8]]]]}}, {"type": "Feature", "properties": {"kind": "region", "name": "קדם", "district": "ירושלים", "label": [35.133, 31.7954]}, "geometry": {"type": "MultiPolygon", "coordinates": [[[[35.1461, 31.8839], [35.1616, 31.8537], [35.1878, 31.8341], [35.1754, 31.8275], [35.1693, 31.8367], [35.1431, 31.8328], [35.1292, 31.8485], [35.1045, 31.8446], [35.0891, 31.8695], [35.0906, 31.8013], [35.0814, 31.7948], [35.0814, 31.7725], [35.103, 31.7515], [35.1091, 31.7358], [35.1261, 31.7384], [35.1354, 31.7528], [35.1585, 31.7594], [35.1616, 31.7555], [35.197, 31.7555], [35.2186, 31.7633], [35.1986, 31.7843], [35.1986, 31.8], [35.2232, 31.7948], [35.2232, 31.7607], [35.2525, 31.7555], [35.2587, 31.7659], [35.251, 31.7908], [35.2587, 31.8053], [35.2541, 31.8341], [35.2618, 31.8419], [35.251, 31.8511], [35.2556, 31.8603], [35.2479, 31.8655], [35.231, 31.8642], [35.2202, 31.8839], [35.1477, 31.8839], [35.1461, 31.8839]]]]}}, {"type": "Feature", "properties": {"kind": "region", "name": "רותם", "district": "דרום", "label": [35.031, 30.9833]}, "geometry": {"type": "MultiPolygon", "coordinates": [[[[35.3913, 31.5139], [35.3728, 31.5073], [35.3296, 31.4705], [35.305, 31.4705], [35.2803, 31.4482], [35.2572, 31.4416], [35.2572, 31.4258], [35.2155, 31.3995], [35.1893, 31.3995], [35.1724, 31.3876], [35.1354, 31.3876], [35.1292, 31.3968], [35.1153, 31.3995], [35.1091, 31.3995], [35.0968, 31.385], [35.0398, 31.3889], [35.0398, 31.3718], [35.0274, 31.3613], [34.975, 31.3573], [34.9488, 31.335], [34.9472, 31.2454], [34.847, 31.2454], [34.7884, 31.1979], [34.6666, 31.1966], [34.6666, 30.3474], [34.8378, 30.3474], [34.8609, 30.3647], [34.9303, 30.3647], [35.0413, 30.2755], [35.1508, 30.2755], [35.1415, 30.3261], [35.1878, 30.3793], [35.1569, 30.4484], [35.1585, 30.491], [35.1939, 30.5428], [35.2125, 30.6344], [35.2664, 30.702], [35.2788, 30.7418], [35.2911, 30.7524], [35.2942, 30.7987], [35.3003, 30.8093], [35.3158, 30.8332], [35.342, 30.8504], [35.3343, 30.8901], [35.3558, 30.9417], [35.3651, 30.9549], [35.3959, 30.9628], [35.4206, 30.984], [35.4237, 31.0025], [35.416, 31.0091], [35.3666, 31.0091], [35.3666, 31.0197], [35.3836, 31.0316], [35.3836, 31.0487], [35.3713, 31.0619], [35.4083, 31.1082], [35.3944, 31.1332], [35.3944, 31.1741], [35.3744, 31.19], [35.3574, 31.2599], [35.3898, 31.2599], [35.399, 31.248], [35.4114, 31.2546], [35.4006, 31.2889], [35.4283, 31.3402], [35.416, 31.3547], [35.4067, 31.3534], [35.4206, 31.381], [35.4114, 31.3916], [35.4144, 31.4113], [35.3913, 31.4482], [35.4036, 31.4823], [35.3929, 31.5139], [35.3913, 31.5139]]], [[[34.6882, 31.5086], [34.6743, 31.5034], [34.6358, 31.4705], [34.6342, 31.4153], [34.6342, 31.3797], [34.6851, 31.3402], [34.7021, 31.3402], [34.7021, 31.3876], [34.7345, 31.4232], [34.7345, 31.5086], [34.6897, 31.5086], [34.6882, 31.5086]]]]}}, {"type": "Feature", "properties": {"kind": "region", "name": "שומרון", "district": "ש\"י", "label": [35.2186, 32.4126]}, "geometry": {"type": "MultiPolygon", "coordinates": [[[[35.2232, 32.5505], [35.2047, 32.544], [35.1508, 32.4945], [35.1338, 32.4932], [35.1215, 32.4802], [35.0968, 32.4802], [35.0737, 32.462], [35.0737, 32.4347], [35.0613, 32.4282], [35.0505, 32.3996], [35.0613, 32.3657], [35.0213, 32.3449], [35.0151, 32.2993], [35.0382, 32.2901], [35.0351, 32.2745], [35.3774, 32.2745], [35.4545, 32.3318], [35.5501, 32.3318], [35.5501, 32.3761], [35.5578, 32.3852], [35.547, 32.3957], [35.5285, 32.393], [35.4746, 32.4152], [35.4329, 32.4061], [35.4036, 32.4152], [35.4083, 32.4321], [35.3975, 32.4516], [35.4114, 32.4581], [35.4114, 32.4737], [35.3959, 32.5036], [35.3558, 32.5193], [35.2772, 32.5128], [35.2464, 32.5258], [35.2248, 32.5505], [35.2232, 32.5505]]], [[[35.0043, 32.0722], [35.0135, 32.0199], [34.9904, 31.982], [35.0043, 31.9689], [35.0012, 31.9506], [35.0089, 31.9441], [35.0475, 31.9375], [35.0336, 31.8708], [35.0459, 31.8642], [35.0552, 31.8734], [35.0906, 31.8734], [35.1045, 31.8446], [35.1369, 31.8485], [35.1369, 31.8393], [35.1492, 31.8341], [35.16, 31.8354], [35.1677, 31.8485], [35.1492, 31.8773], [35.1354, 31.8878], [35.1986, 31.8839], [35.2078, 31.8983], [35.2202, 31.8983], [35.2279, 31.8681], [35.2602, 31.8642], [35.251, 31.8511], [35.2618, 31.8433], [35.5409, 31.8433], [35.547, 31.8603], [35.5347, 31.8773], [35.544, 31.8878], [35.5409, 31.8943], [35.4561, 31.8943], [35.4437, 31.8996], [35.2371, 32.0722], [35.0058, 32.0722], [35.0043, 32.0722]]], [[[35.2525, 31.7948], [35.2587, 31.7659], [35.251, 31.745], [35.2587, 31.7384], [35.4807, 31.7384], [35.5054, 31.783], [35.5409, 31.7791], [35.5578, 31.7908], [35.2541, 31.7948], [35.2525, 31.7948]]]]}}, {"type": "Feature", "properties": {"kind": "region", "name": "שפלה", "district": "מרכז", "label": [34.8038, 31.8721]}, "geometry": {"type": "MultiPolygon", "coordinates": [[[[34.8193, 32.0199], [34.8069, 32.0068], [34.756, 32.0121], [34.7453, 32.0173], [34.7314, 32.0055], [34.7144, 31.9545], [34.6805, 31.9048], [34.6882, 31.8878], [34.7144, 31.876], [34.7144, 31.8511], [34.7668, 31.8275], [34.7915, 31.7856], [34.8547, 31.8302], [34.9102, 31.8341], [34.9179, 31.8537], [34.9611, 31.876], [34.958, 31.8904], [34.975, 31.8878], [34.9997, 31.8734], [35.0274, 31.8734], [35.0459, 31.927], [35.0398, 31.9388], [35.0089, 31.9441], [35.0012, 31.9506], [35.0043, 31.965], [34.9904, 31.9807], [34.9966, 31.9951], [34.9889, 31.9951], [34.9735, 31.9807], [34.8933, 31.9807], [34.8701, 31.9755], [34.8671, 31.9467], [34.8393, 31.9323], [34.8223, 31.9323], [34.8223, 31.9493], [34.8331, 31.9663], [34.8331, 31.9977], [34.8193, 32.0186], [34.8193, 32.0199]]]]}}, {"type": "Feature", "properties": {"kind": "region", "name": "שרון", "district": "מרכז", "label": [34.9338, 32.2743]}, "geometry": {"type": "MultiPolygon", "coordinates": [[[[34.884, 32.4152], [34.8686, 32.4061], [34.8239, 32.2275], [34.8378, 32.2223], [34.8408, 32.2015], [34.8701, 32.1845], [34.8748, 32.144], [34.8532, 32.1075], [34.8578, 32.097], [34.8886, 32.0761], [34.9072, 32.0434], [34.9257, 32.0461], [34.9596, 32.0212], [35.012, 32.0212], [35.0105, 32.0591], [34.9873, 32.0983], [34.995, 32.1218], [34.9873, 32.1427], [34.995, 32.1597], [34.9673, 32.1793], [34.9611, 32.2028], [35.0074, 32.2367], [35.0336, 32.2706], [35.0351, 32.2784], [35.0151, 32.2967], [35.0213, 32.3449], [35.049, 32.3592], [35.0583, 32.3722], [35.0444, 32.3839], [35.0028, 32.3891], [34.9812, 32.4087], [34.9025, 32.4087], [34.8856, 32.4152], [34.884, 32.4152]]], [[[34.8347, 31.9977], [34.8331, 31.9663], [34.8223, 31.9493], [34.8223, 31.9323], [34.8516, 31.9375], [34.8671, 31.9467], [34.8701, 31.9571], [34.8701, 31.9768], [34.8516, 31.9925], [34.8362, 31.9977], [34.8347, 31.9977]]]]}}]}