{"type": "FeatureCollection", "features": [{"type": "Feature", "properties": {"kind": "district", "name": "צפון", "label": [35.3618, 32.7028]}, "geometry": {"type": "MultiPolygon", "coordinates": [[[[35.7496, 33.3127], [35.7353, 33.3055], [35.7066, 33.3103], [35.6922, 33.2959], [35.6922, 33.2839], [35.6492, 33.2551], [35.6147, 33.2575], [35.6061, 33.2503], [35.609, 33.2263], [35.5774, 33.2407], [35.5774, 33.2551], [35.5631, 33.2671], [35.5487, 33.2599], [35.5516, 33.2503], [35.5229, 33.2095], [35.5286, 33.1735], [35.5172, 33.1374], [35.52, 33.1158], [35.4913, 33.0942], [35.4913, 33.0773], [35.4483, 33.0797], [35.4253, 33.0533], [35.3794, 33.0437], [35.3536, 33.0437], [35.3335, 33.0557], [35.2962, 33.0533], [35.279, 33.0268], [35.2445, 33.0244], [35.2302, 33.0003], [35.2474, 32.9835], [35.2101, 32.969], [35.2216, 32.9522], [35.2531, 32.945], [35.213, 32.9209], [35.2244, 32.904], [35.2044, 32.8872], [35.1441, 32.8872], [35.1183, 32.8775], [35.1183, 32.851], [35.1527, 32.8293], [35.1355, 32.7762], [35.1642, 32.7642], [35.1728, 32.7304], [35.1383, 32.7159], [35.1355, 32.6942], [35.1039, 32.6603], [35.0666, 32.6362], [35.0408, 32.5975], [35.0436, 32.5588], [35.0637, 32.5443], [35.1355, 32.554], [35.1498, 32.5661], [35.1871, 32.5757], [35.2072, 32.5467], [35.2244, 32.5515], [35.2445, 32.5274], [35.2704, 32.5153], [35.3019, 32.5104], [35.3335, 32.5201], [35.3622, 32.5177], [35.3995, 32.4983], [35.411, 32.4596], [35.3966, 32.4426], [35.4081, 32.4354], [35.4052, 32.4184], [35.4138, 32.4111], [35.454, 32.4087], [35.4712, 32.416], [35.5286, 32.3942], [35.5516, 32.416], [35.5459, 32.4329], [35.5631, 32.4572], [35.5602, 32.4862], [35.5717, 32.4935], [35.5487, 32.5128], [35.5573, 32.5298], [35.5516, 32.5467], [35.5631, 32.554], [35.5717, 32.5806], [35.5717, 32.5927], [35.5602, 32.5999], [35.5659, 32.6168], [35.5573, 32.6241], [35.5573, 32.641], [35.586, 32.6507], [35.6004, 32.6772], [35.6549, 32.6797], [35.6693, 32.7038], [35.7467, 32.7376], [35.8242, 32.8221], [35.8357, 32.8847], [35.8558, 32.9161], [35.8788, 32.9329], [35.8558, 32.9715], [35.8357, 33.0797], [35.8013, 33.1014], [35.8041, 33.1182], [35.8271, 33.147], [35.8242, 33.1687], [35.8013, 33.1855], [35.7984, 33.2287], [35.764, 33.2527], [35.764, 33.2623], [35.7927, 33.2935], [35.7525, 33.3127], [35.7496, 33.3127]]]]}}, {"type": "Feature", "properties": {"kind": "district", "name": "חוף", "label": [35.0016, 32.4995]}, "geometry": {"type": "MultiPolygon", "coordinates": [[[[35.2847, 33.0918], [35.2388, 33.0797], [35.213, 33.0845], [35.1957, 33.0701], [35.1757, 33.0773], [35.1498, 33.0725], [35.1441, 33.0797], [35.1125, 33.0797], [35.1039, 33.0725], [35.1039, 33.0437], [35.0752, 32.957], [35.0695, 32.9137], [35.081, 32.904], [35.081, 32.892], [35.0637, 32.8414], [35.035, 32.8028], [35.0121, 32.81], [34.9862, 32.8317], [34.9576, 32.8172], [34.9518, 32.728], [34.9461, 32.7062], [34.9289, 32.6893], [34.9202, 32.5951], [34.8743, 32.4281], [34.9059, 32.4087], [34.9805, 32.4087], [35.0293, 32.3821], [35.0494, 32.3893], [35.058, 32.4232], [35.0723, 32.4354], [35.0723, 32.462], [35.0982, 32.4814], [35.1125, 32.4789], [35.1498, 32.4959], [35.2072, 32.5443], [35.1871, 32.5757], [35.1498, 32.5661], [35.1355, 32.554], [35.0637, 32.5443], [35.0436, 32.5588], [35.0408, 32.5975], [35.0666, 32.6362], [35.0896, 32.6483], [35.1355, 32.6942], [35.1383, 32.7159], [35.1728, 32.7304], [35.1642, 32.74], [35.1642, 32.7642], [35.1441, 32.7666], [35.1355, 32.7762], [35.1527, 32.8293], [35.1183, 32.851], [35.1183, 32.8775], [35.1441, 32.8872], [35.2044, 32.8872], [35.2244, 32.904], [35.2101, 32.9233], [35.2273, 32.9281], [35.2417, 32.945], [35.2044, 32.9618], [35.2417, 32.9859], [35.2216, 32.9955], [35.2216, 33.0027], [35.2503, 33.0292], [35.279, 33.0268], [35.2962, 33.0533], [35.3191, 33.0509], [35.3306, 33.0581], [35.3077, 33.0869], [35.2876, 33.0918], [35.2847, 33.0918]]]]}}, {"type": "Feature", "properties": {"kind": "district", "name": "מרכז", "label": [34.8257, 31.9197]}, "geometry": {"type": "MultiPolygon", "coordinates": [[[[34.8829, 32.416], [34.8686, 32.4063], [34.8227, 32.2292], [34.837, 32.222], [34.8399, 32.2025], [34.8686, 32.1855], [34.8743, 32.1467], [34.8514, 32.1078], [34.8628, 32.0908], [34.8858, 32.0786], [34.9088, 32.0421], [34.8715, 32.0348], [34.837, 32.0397], [34.8055, 32.0081], [34.7452, 32.0178], [34.7308, 32.0056], [34.7136, 31.9569], [34.6792, 31.9034], [34.6878, 31.8887], [34.7136, 31.8766], [34.7136, 31.8522], [34.7653, 31.8278], [34.7911, 31.7863], [34.8542, 31.8302], [34.9088, 31.8327], [34.9145, 31.8522], [34.9604, 31.8766], [34.9576, 31.8912], [35.0006, 31.8741], [35.0264, 31.8741], [35.0465, 31.9277], [35.0379, 31.9423], [35.0035, 31.9472], [35.0035, 31.9643], [34.9891, 31.9837], [35.0121, 32.0202], [35.0092, 32.0592], [34.9862, 32.1005], [34.9949, 32.1199], [34.9862, 32.1418], [34.9949, 32.1588], [34.9662, 32.1807], [34.9604, 32.2025], [35.0207, 32.2487], [35.035, 32.2778], [35.0149, 32.2972], [35.0207, 32.3457], [35.0436, 32.3554], [35.058, 32.3724], [35.0436, 32.3845], [35.0035, 32.3893], [34.9805, 32.4087], [34.9059, 32.4087], [34.8858, 32.416], [34.8829, 32.416]]]]}}, {"type": "Feature", "properties": {"kind": "district", "name": "תל אביב", "label": [34.8169, 32.0786]}, "geometry": {"type": "MultiPolygon", "coordinates": [[[[34.8198, 32.2123], [34.8083, 32.205], [34.7882, 32.1345], [34.7624, 32.0737], [34.7481, 32.0616], [34.7394, 32.0227], [34.7567, 32.0129], [34.8026, 32.0081], [34.8313, 32.0421], [34.8715, 32.0348], [34.903, 32.047], [34.8858, 32.0786], [34.8657, 32.0835], [34.8514, 32.1054], [34.8743, 32.1467], [34.8657, 32.1855], [34.8198, 32.2098], [34.8198, 32.2123]]]]}}, {"type": "Feature", "properties": {"kind": "district", "name": "ש\"י", "label": [35.2531, 32.1953]}, "geometry": {"type": "MultiPolygon", "coordinates": [[[[35.2244, 32.5515], [35.2044, 32.5443], [35.1498, 32.4959], [35.1326, 32.4935], [35.1211, 32.4814], [35.0982, 32.4814], [35.0723, 32.462], [35.0723, 32.4354], [35.0609, 32.4281], [35.0494, 32.3966], [35.0609, 32.3675], [35.0207, 32.3457], [35.0149, 32.2996], [35.0379, 32.2899], [35.0322, 32.2705], [34.9891, 32.2171], [34.9633, 32.2074], [34.9604, 32.1928], [34.9949, 32.1588], [34.9862, 32.1418], [34.9949, 32.1272], [34.9862, 32.1005], [35.0092, 32.0592], [35.0121, 32.0202], [34.9891, 31.9837], [35.0035, 31.9691], [35.0006, 31.9521], [35.0092, 31.9448], [35.0465, 31.9375], [35.0322, 31.8717], [35.0436, 31.8644], [35.0551, 31.8741], [35.0896, 31.8741], [35.1039, 31.8449], [35.1355, 31.8498], [35.1355, 31.84], [35.1556, 31.8327], [35.167, 31.8473], [35.1498, 31.8766], [35.1326, 31.8887], [35.1814, 31.8887], [35.1957, 31.8814], [35.2072, 31.8985], [35.2187, 31.8985], [35.2244, 31.8693], [35.2589, 31.8644], [35.2503, 31.8522], [35.2646, 31.8424], [35.2531, 31.8327], [35.2589, 31.8083], [35.2503, 31.7839], [35.2589, 31.7693], [35.2503, 31.762], [35.2503, 31.74], [35.2417, 31.7327], [35.2072, 31.7449], [35.1814, 31.7449], [35.1728, 31.7375], [35.147, 31.7571], [35.1269, 31.74], [35.1039, 31.7351], [35.0494, 31.6863], [35.0121, 31.679], [34.9662, 31.6301], [34.9662, 31.613], [34.9489, 31.6081], [34.9432, 31.5176], [34.9002, 31.4662], [34.8858, 31.4344], [34.9059, 31.4222], [34.8887, 31.405], [34.9088, 31.3928], [34.9202, 31.3732], [35.0207, 31.3903], [35.0953, 31.3854], [35.1068, 31.4001], [35.1269, 31.3977], [35.1355, 31.3879], [35.1699, 31.3879], [35.19, 31.4001], [35.2187, 31.4026], [35.256, 31.4271], [35.2531, 31.4418], [35.2704, 31.4442], [35.3048, 31.4711], [35.3278, 31.4711], [35.3966, 31.5201], [35.3995, 31.569], [35.4196, 31.591], [35.411, 31.6252], [35.4454, 31.679], [35.4512, 31.7229], [35.477, 31.7351], [35.5057, 31.7839], [35.5372, 31.779], [35.5573, 31.7888], [35.5372, 31.8351], [35.5459, 31.8619], [35.5344, 31.879], [35.543, 31.8887], [35.5229, 31.9204], [35.5258, 31.9423], [35.5401, 31.9521], [35.543, 31.9862], [35.5172, 32.0324], [35.5172, 32.0689], [35.5372, 32.0981], [35.5286, 32.1224], [35.543, 32.1321], [35.5372, 32.1442], [35.5516, 32.1612], [35.543, 32.1783], [35.5487, 32.1977], [35.5602, 32.205], [35.5602, 32.302], [35.5516, 32.3069], [35.5573, 32.3214], [35.5487, 32.3263], [35.5487, 32.3748], [35.5573, 32.3845], [35.5459, 32.3966], [35.5286, 32.3942], [35.4712, 32.416], [35.4282, 32.4063], [35.4024, 32.416], [35.4081, 32.4305], [35.3966, 32.4523], [35.411, 32.4596], [35.411, 32.4717], [35.3966, 32.5032], [35.3536, 32.5201], [35.279, 32.5128], [35.2445, 32.5274], [35.2244, 32.5491], [35.2244, 32.5515]]]]}}, {"type": "Feature", "properties": {"kind": "district", "name": "ירושלים", "label": [34.9834, 31.7583]}, "geometry": {"type": "MultiPolygon", "coordinates": [[[[34.969, 31.8887], [34.9547, 31.8693], [34.9145, 31.8522], [34.9145, 31.8351], [34.8542, 31.8302], [34.837, 31.8132], [34.8428, 31.7815], [34.8715, 31.7717], [34.8715, 31.679], [34.9059, 31.6643], [34.9202, 31.6399], [34.9432, 31.6399], [34.9604, 31.6301], [34.9748, 31.635], [35.0121, 31.679], [35.0494, 31.6863], [35.1039, 31.7351], [35.1269, 31.74], [35.1326, 31.7522], [35.1584, 31.7595], [35.1757, 31.7424], [35.2072, 31.7449], [35.2388, 31.7327], [35.2589, 31.7693], [35.2503, 31.7937], [35.2589, 31.8083], [35.2531, 31.8327], [35.2617, 31.8449], [35.2503, 31.8522], [35.256, 31.8595], [35.2445, 31.8668], [35.2302, 31.8644], [35.2187, 31.8839], [35.1441, 31.8839], [35.1613, 31.8546], [35.1871, 31.8351], [35.1757, 31.8278], [35.167, 31.8376], [35.1441, 31.8327], [35.1269, 31.8498], [35.1039, 31.8449], [35.0896, 31.8693], [35.0752, 31.8766], [35.0523, 31.8717], [35.0293, 31.8424], [34.9949, 31.8498], [34.9977, 31.8766], [34.9719, 31.8887], [34.969, 31.8887]]]]}}, {"type": "Feature", "properties": {"kind": "district", "name": "דרום", "label": [34.8767, 30.9766]}, "geometry": {"type": "MultiPolygon", "coordinates": [[[[34.6935, 31.8863], [34.6591, 31.8668], [34.5816, 31.7302], [34.4984, 31.6252], [34.5701, 31.569], [34.5673, 31.5568], [34.5529, 31.5421], [34.5156, 31.5299], [34.3951, 31.432], [34.3664, 31.3952], [34.375, 31.356], [34.3692, 31.3217], [34.352, 31.3168], [34.3291, 31.2898], [34.2975, 31.2776], [34.2688, 31.2457], [34.3922, 30.9139], [34.4926, 30.7315], [34.5185, 30.6402], [34.5127, 30.576], [34.55, 30.5414], [34.5357, 30.4598], [34.6017, 30.4177], [34.6074, 30.3979], [34.6189, 30.3905], [34.616, 30.3781], [34.6763, 30.2146], [34.7136, 30.1352], [34.8141, 29.8593], [34.8428, 29.8045], [34.8485, 29.7273], [34.8686, 29.6974], [34.8715, 29.665], [34.86, 29.6475], [34.8657, 29.5976], [34.9002, 29.5377], [34.9174, 29.5477], [34.9547, 29.5951], [34.9662, 29.5926], [34.9748, 29.6001], [34.9862, 29.6425], [35.0178, 29.6899], [35.0236, 29.7971], [35.0322, 29.822], [35.0465, 29.8344], [35.0637, 29.8941], [35.081, 29.9165], [35.0781, 29.9936], [35.1039, 30.0334], [35.101, 30.0657], [35.1498, 30.1203], [35.1584, 30.1699], [35.147, 30.2121], [35.1556, 30.2394], [35.1412, 30.3261], [35.1871, 30.3806], [35.1556, 30.4524], [35.1584, 30.4919], [35.1929, 30.5438], [35.213, 30.6377], [35.2646, 30.7019], [35.279, 30.7438], [35.2904, 30.7537], [35.2933, 30.7981], [35.3163, 30.8351], [35.3421, 30.8523], [35.3335, 30.8893], [35.3536, 30.9385], [35.3651, 30.9557], [35.3938, 30.9631], [35.4196, 30.9852], [35.4225, 31.0025], [35.4138, 31.0098], [35.3651, 31.0098], [35.3651, 31.0197], [35.3823, 31.032], [35.3823, 31.0492], [35.3708, 31.0615], [35.4081, 31.1057], [35.3938, 31.1352], [35.3938, 31.1745], [35.3737, 31.1917], [35.3565, 31.2604], [35.388, 31.2604], [35.3995, 31.2481], [35.411, 31.2555], [35.3995, 31.2874], [35.4282, 31.3438], [35.4138, 31.356], [35.4052, 31.3536], [35.4196, 31.3805], [35.411, 31.3928], [35.4138, 31.4099], [35.3909, 31.4491], [35.4024, 31.4834], [35.3938, 31.5152], [35.3765, 31.5103], [35.3278, 31.4711], [35.3048, 31.4711], [35.279, 31.4491], [35.256, 31.4418], [35.256, 31.4271], [35.213, 31.4001], [35.19, 31.4001], [35.1699, 31.3879], [35.1355, 31.3879], [35.1269, 31.3977], [35.1096, 31.4001], [35.0953, 31.3854], [35.0207, 31.3903], [34.9202, 31.3732], [34.9088, 31.3928], [34.8887, 31.405], [34.8858, 31.4344], [34.9002, 31.4662], [34.9432, 31.5176], [34.9489, 31.6081], [34.9662, 31.6154], [34.9662, 31.6277], [34.9432, 31.6399], [34.9088, 31.6399], [34.9088, 31.6619], [34.8715, 31.679], [34.8715, 31.7693], [34.8456, 31.7766], [34.8399, 31.8034], [34.8227, 31.8083], [34.8112, 31.7937], [34.7882, 31.7839], [34.7653, 31.8278], [34.7366, 31.8424], [34.7107, 31.8449], [34.7136, 31.8766], [34.6964, 31.8863], [34.6935, 31.8863]]]]}}]}